NORAD_CAT_ID,OBJECT_NAME,OBJECT_TYPE,EPOCH,MEAN_MOTION,ECCENTRICITY,INCLINATION,RA_OF_ASC_NODE,ARG_OF_PERICENTER,MEAN_ANOMALY,BSTAR,MEAN_MOTION_DOT,MEAN_MOTION_DDOT,TLE_LINE0,TLE_LINE1,TLE_LINE2,SEMIMAJOR_AXIS,PERIOD,APOGEE,PERIGEE,DECAYED
52875.0,STARLINK-4193,PAYLOAD,2022-07-26 14:00:01,15.73321432,0.000344,53.2144,211.5451,11.7992,193.3246,-0.0011995999999999,-0.00166625,0.0,0 STARLINK-4193,1 52875U 22062AX  22207.58334491 -.00166625  00000-0 -11996-2 0  9995,2 52875  53.2144 211.5451 0003440  11.7992 193.3246 15.73321432  6642,6727.549,91.526,351.728,347.1,0.0
52875.0,STARLINK-4193,PAYLOAD,2022-07-26 20:00:01,15.73204134,0.0003328999999999,53.2141,210.3066,9.241,172.6607,0.00026154,0.00036257,0.0,0 STARLINK-4193,1 52875U 22062AX  22207.83334491  .00036257  00000-0  26154-3 0  9991,2 52875  53.2141 210.3066 0003329   9.2410 172.6607 15.73204134  6685,6727.8830000000025,91.533,351.98800000000006,347.509,0.0
52875.0,STARLINK-4193,PAYLOAD,2022-07-26 22:00:00,15.73189871,0.0003294,53.2141,209.8939,9.8405,284.3037,0.00052804,0.00074125,0.0,0 STARLINK-4193,1 52875U 22062AX  22207.91667824  .00074125  00000-0  52804-3 0  9996,2 52875  53.2141 209.8939 0003294   9.8405 284.3037 15.73189871  1300,6727.924,91.534,352.005,347.5730000000001,0.0
52875.0,STARLINK-4193,PAYLOAD,2022-07-27 06:00:02,15.73237814,0.0003451,53.2145,208.2461,8.3564,14.7977,-0.00063591,-0.00089108,0.0,0 STARLINK-4193,1 52875U 22062AX  22208.25002315 -.00089108  00000-0 -63591-3 0  9996,2 52875  53.2145 208.2461 0003451   8.3564  14.7977 15.73237814  6755,6727.7869999999975,91.531,351.974,347.331,0.0
52875.0,STARLINK-4193,PAYLOAD,2022-07-27 14:00:01,15.73211202,0.0003493,53.214,206.5965,7.7993,104.2338,0.00010816,0.00014594,0.0,0 STARLINK-4193,1 52875U 22062AX  22208.58334491  .00014594  00000-0  10816-3 0  9992,2 52875  53.2140 206.5965 0003493   7.7993 104.2338 15.73211202  1300,6727.863,91.533,352.07800000000015,347.37800000000016,0.0
52875.0,STARLINK-4193,PAYLOAD,2022-07-27 16:00:00,15.73228721,0.0003393,53.2141,206.1835,8.295,215.9693,-0.0001075,-0.00015706,0.0,0 STARLINK-4193,1 52875U 22062AX  22208.66667824 -.00015706  00000-0 -10750-3 0  9995,2 52875  53.2141 206.1835 0003393   8.2950 215.9693 15.73228721  6810,6727.813,91.532,351.961,347.396,0.0
52875.0,STARLINK-4193,PAYLOAD,2022-07-27 22:00:00,15.73225276,0.0003243,53.2141,204.9451,11.2218,189.7618,-0.00014726,-0.00021267,0.0,0 STARLINK-4193,1 52875U 22062AX  22208.91667824 -.00021267  00000-0 -14726-3 0  9999,2 52875  53.2141 204.9451 0003243  11.2218 189.7618 15.73225276  1301,6727.823,91.532,351.87,347.506,0.0
52875.0,STARLINK-4193,PAYLOAD,2022-07-28 08:00:01,15.7319919,0.0003553999999999,53.2147,202.8856,12.6329,29.498,-0.00024739,-0.0003521,0.0,0 STARLINK-4193,1 52875U 22062AX  22209.33334491 -.00035210  00000-0 -24739-3 0  9995,2 52875  53.2147 202.8856 0003554  12.6329  29.4980 15.73199190  6926,6727.897,91.533,352.154,347.371,0.0
52875.0,STARLINK-4193,PAYLOAD,2022-07-28 14:00:01,15.7318973,0.0003506999999999,53.2144,201.6477,10.3884,8.432,-0.0003666,-0.00051755,0.0,0 STARLINK-4193,1 52875U 22062AX  22209.58334491 -.00051755  00000-0 -36660-3 0  9990,2 52875  53.2144 201.6477 0003507  10.3884   8.4320 15.73189730  1309,6727.924,91.534,352.149,347.43,0.0
52875.0,STARLINK-4193,PAYLOAD,2022-07-28 22:00:00,15.73145936,0.0003302,53.2146,199.9968,12.1257,95.588,0.00045959,0.00064238,0.0,0 STARLINK-4193,1 52875U 22062AX  22209.91667824  .00064238  00000-0  45959-3 0  9995,2 52875  53.2146 199.9968 0003302  12.1257  95.5880 15.73145936  1300,6728.049,91.536,352.136,347.6930000000001,0.0
52875.0,STARLINK-4193,PAYLOAD,2022-07-29 06:00:00,15.73184077,0.0003563999999999,53.2144,198.3493,12.7465,183.8585,0.00010195,0.00013702,0.0,0 STARLINK-4193,1 52875U 22062AX  22210.25001157  .00013702  00000-0  10195-3 0  9999,2 52875  53.2144 198.3493 0003564  12.7465 183.8585 15.73184077  7062,6727.941,91.534,352.20300000000015,347.408,0.0
52875.0,STARLINK-4193,PAYLOAD,2022-07-29 14:00:01,15.73216044,0.0003523999999999,53.214,196.6992,12.8852,272.6253,-6.470300000000001e-05,-9.704e-05,0.0,0 STARLINK-4193,1 52875U 22062AX  22210.58334491 -.00009704  00000-0 -64703-4 0  9999,2 52875  53.2140 196.6992 0003524  12.8852 272.6253 15.73216044  1300,6727.849,91.532,352.085,347.344,0.0
52875.0,STARLINK-4193,PAYLOAD,2022-07-29 22:00:00,15.73202414,0.0003302,53.2144,195.0482,15.2141,359.241,0.0004511,0.00063185,0.0,0 STARLINK-4193,1 52875U 22062AX  22210.91667824  .00063185  00000-0  45110-3 0  9996,2 52875  53.2144 195.0482 0003302  15.2141 359.2410 15.73202414  1306,6727.888000000001,91.533,351.975,347.532,0.0
52875.0,STARLINK-4193,PAYLOAD,2022-07-30 14:00:01,15.73210864,0.0003493,53.2148,191.7505,11.2215,181.1529,-0.00010415,-0.00015226,0.0,0 STARLINK-4193,1 52875U 22062AX  22211.58334491 -.00015226  00000-0 -10415-3 0  9996,2 52875  53.2148 191.7505 0003493  11.2215 181.1529 15.73210864  7271,6727.864000000001,91.533,352.079,347.379,0.0
52875.0,STARLINK-4193,PAYLOAD,2022-07-30 22:00:00,15.73203583,0.0003319,53.2151,190.0996,13.7657,267.5445,0.00039262,0.00054861,0.0,0 STARLINK-4193,1 52875U 22062AX  22211.91667824  .00054861  00000-0  39262-3 0  9999,2 52875  53.2151 190.0996 0003319  13.7657 267.5445 15.73203583  1309,6727.885,91.533,351.983,347.517,0.0
52875.0,STARLINK-4193,PAYLOAD,2022-07-31 06:00:02,15.73246206,0.0003573999999999,53.2148,188.4521,13.0831,357.2353,-0.00037986,-0.00053722,0.0,0 STARLINK-4193,1 52875U 22062AX  22212.25002315 -.00053722  00000-0 -37986-3 0  9993,2 52875  53.2148 188.4521 0003574  13.0831 357.2353 15.73246206  7388,6727.763000000001,91.53,352.033,347.224,0.0
52875.0,STARLINK-4193,PAYLOAD,2022-07-31 14:00:01,15.73211043,0.0003448,53.2145,186.8017,11.0964,88.1236,-0.00023088,-0.00032926,0.0,0 STARLINK-4193,1 52875U 22062AX  22212.58334491 -.00032926  00000-0 -23088-3 0  9993,2 52875  53.2145 186.8017 0003448  11.0964  88.1236 15.73211043  1309,6727.864000000001,91.533,352.048,347.409,0.0
52875.0,STARLINK-4193,PAYLOAD,2022-07-31 22:00:00,15.73199449,0.0003226,53.2149,185.1511,13.402,174.7488,0.00035433,0.00049408,0.0,0 STARLINK-4193,1 52875U 22062AX  22212.91667824  .00049408  00000-0  35433-3 0  9997,2 52875  53.2149 185.1511 0003226  13.4020 174.7488 15.73199449  7488,6727.897,91.533,351.932,347.591,0.0
52875.0,STARLINK-4193,PAYLOAD,2022-08-01 14:00:01,15.73265152,0.0003396999999999,53.2152,181.8531,10.3922,355.6705,-0.00071477,-0.00100068,0.0,0 STARLINK-4193,1 52875U 22062AX  22213.58334491 -.00100068  00000-0 -71477-3 0  9992,2 52875  53.2152 181.8531 0003397  10.3922 355.6705 15.73265152  1305,6727.709,91.529,351.86,347.289,0.0
52875.0,STARLINK-4193,PAYLOAD,2022-08-01 22:00:00,15.73222979,0.0003259999999999,53.2154,180.2027,11.27,83.7515,-8.2236e-06,-1.779e-05,0.0,0 STARLINK-4193,1 52875U 22062AX  22213.91667824 -.00001779  00000-0 -82236-5 0  9994,2 52875  53.2154 180.2027 0003260  11.2700  83.7515 15.73222979  7644,6727.83,91.532,351.88800000000015,347.501,0.0
52875.0,STARLINK-4193,PAYLOAD,2022-08-02 06:00:02,15.73176548,0.0003538,53.215,178.5551,9.0658,174.9802,-2.5829e-05,-4.244e-05,0.0,0 STARLINK-4193,1 52875U 22062AX  22214.25002315 -.00004244  00000-0 -25829-4 0  9994,2 52875  53.2150 178.5551 0003538   9.0658 174.9802 15.73176548  7694,6727.962,91.535,352.207,347.44699999999995,0.0
52875.0,STARLINK-4193,PAYLOAD,2022-08-02 14:00:01,15.73197792,0.0003362,53.2145,176.9045,8.6614,264.2175,-7.4757e-05,-0.00011104,0.0,0 STARLINK-4193,1 52875U 22062AX  22214.58334491 -.00011104  00000-0 -74757-4 0  9990,2 52875  53.2145 176.9045 0003362   8.6614 264.2175 15.73197792  1302,6727.901,91.533,352.028,347.505,0.0
52875.0,STARLINK-4193,PAYLOAD,2022-08-03 06:00:00,15.73206512,0.0003434,53.215,173.6068,7.644,83.111,-0.00019319,-0.00027664,0.0,0 STARLINK-4193,1 52875U 22062AX  22215.25001157 -.00027664  00000-0 -19319-3 0  9995,2 52875  53.2150 173.6068 0003434   7.6440  83.1110 15.73206512  7857,6727.877,91.533,352.052,347.431,0.0
52875.0,STARLINK-4193,PAYLOAD,2022-08-03 14:00:01,15.73208006,0.000334,53.2151,171.9559,6.5241,173.1586,3.8375e-07,-5.700000000000001e-06,0.0,0 STARLINK-4193,1 52875U 22062AX  22215.58334491 -.00000570  00000-0  38375-6 0  9993,2 52875  53.2151 171.9559 0003340   6.5241 173.1586 15.73208006  1308,6727.871999999999,91.533,351.9840000000001,347.49,0.0
52875.0,STARLINK-4193,PAYLOAD,2022-08-03 22:00:01,15.73249852,0.0003182,53.2151,170.3058,7.5761,261.1023,-0.00021831,-0.00031222,0.0,0 STARLINK-4193,1 52875U 22062AX  22215.91668981 -.00031222  00000-0 -21831-3 0  9999,2 52875  53.2151 170.3058 0003182   7.5761 261.1023 15.73249852  1305,6727.753000000002,91.53,351.759,347.477,0.0
52875.0,STARLINK-4193,PAYLOAD,2022-08-04 06:00:00,15.73174346,0.0003461,53.2146,168.6583,6.5276,351.0578,0.00018988,0.00026086,0.0,0 STARLINK-4193,1 52875U 22062AX  22216.25001157  .00026086  00000-0  18988-3 0  9992,2 52875  53.2146 168.6583 0003461   6.5276 351.0578 15.73174346  8016,6727.968000000003,91.535,352.162,347.505,0.0
52875.0,STARLINK-4193,PAYLOAD,2022-08-04 14:00:01,15.73200521,0.0003282,53.2142,167.0072,6.2483,80.2465,6.5911e-05,8.639e-05,0.0,0 STARLINK-4193,1 52875U 22062AX  22216.58334491  .00008639  00000-0  65911-4 0  9991,2 52875  53.2142 167.0072 0003282   6.2483  80.2465 15.73200521  1302,6727.894,91.533,351.967,347.551,0.0
52875.0,STARLINK-4193,PAYLOAD,2022-08-04 22:00:00,15.73254123,0.0003171999999999,53.2144,165.3573,10.6149,164.8176,-0.00055204,-0.00077591,0.0,0 STARLINK-4193,1 52875U 22062AX  22216.91667824 -.00077591  00000-0 -55204-3 0  9995,2 52875  53.2144 165.3573 0003172  10.6149 164.8176 15.73254123  1302,6727.741,91.53,351.74,347.472,0.0
52875.0,STARLINK-4193,PAYLOAD,2022-08-05 06:00:02,15.731581699999998,0.0003505,53.2145,163.7097,12.0889,252.3605,0.00048469,0.00067847,0.0,0 STARLINK-4193,1 52875U 22062AX  22217.25002315  .00067847  00000-0  48469-3 0  9997,2 52875  53.2145 163.7097 0003505  12.0889 252.3605 15.73158170  8170,6728.014,91.536,352.23800000000006,347.521,0.0
